{
  "type": "FeatureCollection",
  "features": [
    {
      "type": "Feature",
      "properties": {
        "norad_id": 30594,
        "name": "FENGYUN 1C DEB",
        "group": "fengyun-1c-debris",
        "lat": -1.0421491749983427,
        "lon": 17.332119635968326,
        "alt_km": 958.1746661358839,
        "timestamp": "2025-12-07T11:27:50.279817+00:00",
        "meta_object_name": "FENGYUN 1C DEB",
        "meta_object_id": "1999-025ALZ",
        "meta_epoch": "2025-12-06T21:02:56.224032",
        "meta_mean_motion": 14.17332238,
        "meta_eccentricity": 0.01936541,
        "meta_inclination": 99.1517,
        "meta_ra_of_asc_node": 196.8816,
        "meta_arg_of_pericenter": 333.0071,
        "meta_mean_anomaly": 26.1131,
        "meta_ephemeris_type": 0,
        "meta_classification_type": "U",
        "meta_norad_cat_id": 30594,
        "meta_element_set_no": 999,
        "meta_rev_at_epoch": 97496,
        "meta_bstar": 0.00032887954,
        "meta_mean_motion_dot": 7.5e-06,
        "meta_mean_motion_ddot": 0,
        "tle_line1": "1 30594U 99025ALZ 25340.87703963  .00000750  00000+0  32888-3 0  9996",
        "tle_line2": "2 30594  99.1517 196.8816 0193654 333.0071  26.1131 14.17332238974962"
      },
      "geometry": {
        "type": "Point",
        "coordinates": [
          17.332119635968326,
          -1.0421491749983427
        ]
      }
    },
    {
      "type": "Feature",
      "properties": {
        "norad_id": 30596,
        "name": "FENGYUN 1C DEB",
        "group": "fengyun-1c-debris",
        "lat": -5.406709652577584,
        "lon": 158.5291269388109,
        "alt_km": 864.8270604544268,
        "timestamp": "2025-12-07T11:27:50.279827+00:00",
        "meta_object_name": "FENGYUN 1C DEB",
        "meta_object_id": "1999-025AMB",
        "meta_epoch": "2025-12-06T23:06:47.260800",
        "meta_mean_motion": 14.34331847,
        "meta_eccentricity": 0.02476281,
        "meta_inclination": 98.4124,
        "meta_ra_of_asc_node": 338.8302,
        "meta_arg_of_pericenter": 306.3883,
        "meta_mean_anomaly": 105.7005,
        "meta_ephemeris_type": 0,
        "meta_classification_type": "U",
        "meta_norad_cat_id": 30596,
        "meta_element_set_no": 999,
        "meta_rev_at_epoch": 98478,
        "meta_bstar": 0.00074204031,
        "meta_mean_motion_dot": 2.893e-05,
        "meta_mean_motion_ddot": 0,
        "tle_line1": "1 30596U 99025AMB 25340.96304700  .00002893  00000+0  74204-3 0  9992",
        "tle_line2": "2 30596  98.4124 338.8302 0247628 306.3883 105.7005 14.34331847984782"
      },
      "geometry": {
        "type": "Point",
        "coordinates": [
          158.5291269388109,
          -5.406709652577584
        ]
      }
    },
    {
      "type": "Feature",
      "properties": {
        "norad_id": 30597,
        "name": "FENGYUN 1C DEB",
        "group": "fengyun-1c-debris",
        "lat": 51.64050845788368,
        "lon": -94.24297690909205,
        "alt_km": 606.8074239213965,
        "timestamp": "2025-12-07T11:27:50.279837+00:00",
        "meta_object_name": "FENGYUN 1C DEB",
        "meta_object_id": "1999-025AMC",
        "meta_epoch": "2025-12-06T06:14:51.251424",
        "meta_mean_motion": 14.91478421,
        "meta_eccentricity": 0.00441753,
        "meta_inclination": 98.9461,
        "meta_ra_of_asc_node": 275.8581,
        "meta_arg_of_pericenter": 184.7925,
        "meta_mean_anomaly": 175.2873,
        "meta_ephemeris_type": 0,
        "meta_classification_type": "U",
        "meta_norad_cat_id": 30597,
        "meta_element_set_no": 999,
        "meta_rev_at_epoch": 98440,
        "meta_bstar": 0.0089639581,
        "meta_mean_motion_dot": 0.00092448,
        "meta_mean_motion_ddot": 0,
        "tle_line1": "1 30597U 99025AMC 25340.26031541  .00092448  00000+0  89640-2 0  9990",
        "tle_line2": "2 30597  98.9461 275.8581 0044175 184.7925 175.2873 14.91478421984405"
      },
      "geometry": {
        "type": "Point",
        "coordinates": [
          -94.24297690909205,
          51.64050845788368
        ]
      }
    },
    {
      "type": "Feature",
      "properties": {
        "norad_id": 30599,
        "name": "FENGYUN 1C DEB",
        "group": "fengyun-1c-debris",
        "lat": 69.43006350494232,
        "lon": -30.55050454816141,
        "alt_km": 743.844966002941,
        "timestamp": "2025-12-07T11:27:50.279847+00:00",
        "meta_object_name": "FENGYUN 1C DEB",
        "meta_object_id": "1999-025AME",
        "meta_epoch": "2025-12-06T11:27:52.089408",
        "meta_mean_motion": 14.19643972,
        "meta_eccentricity": 0.0302816,
        "meta_inclination": 98.6031,
        "meta_ra_of_asc_node": 352.2673,
        "meta_arg_of_pericenter": 2.8987,
        "meta_mean_anomaly": 357.3856,
        "meta_ephemeris_type": 0,
        "meta_classification_type": "U",
        "meta_norad_cat_id": 30599,
        "meta_element_set_no": 999,
        "meta_rev_at_epoch": 97078,
        "meta_bstar": 0.001412668,
        "meta_mean_motion_dot": 4.681e-05,
        "meta_mean_motion_ddot": 0,
        "tle_line1": "1 30599U 99025AME 25340.47768622  .00004681  00000+0  14127-2 0  9992",
        "tle_line2": "2 30599  98.6031 352.2673 0302816   2.8987 357.3856 14.19643972970781"
      },
      "geometry": {
        "type": "Point",
        "coordinates": [
          -30.55050454816141,
          69.43006350494232
        ]
      }
    },
    {
      "type": "Feature",
      "properties": {
        "norad_id": 30600,
        "name": "FENGYUN 1C DEB",
        "group": "fengyun-1c-debris",
        "lat": 44.53285828591495,
        "lon": -81.75742667017022,
        "alt_km": 1052.0590238559344,
        "timestamp": "2025-12-07T11:27:50.279858+00:00",
        "meta_object_name": "FENGYUN 1C DEB",
        "meta_object_id": "1999-025AMF",
        "meta_epoch": "2025-11-30T15:24:54.916992",
        "meta_mean_motion": 14.07030871,
        "meta_eccentricity": 0.0330604,
        "meta_inclination": 98.3855,
        "meta_ra_of_asc_node": 280.231,
        "meta_arg_of_pericenter": 282.0902,
        "meta_mean_anomaly": 74.3412,
        "meta_ephemeris_type": 0,
        "meta_classification_type": "U",
        "meta_norad_cat_id": 30600,
        "meta_element_set_no": 999,
        "meta_rev_at_epoch": 94262,
        "meta_bstar": 0.0058342,
        "meta_mean_motion_dot": 0.00016035,
        "meta_mean_motion_ddot": 0,
        "tle_line1": "1 30600U 99025AMF 25334.64230228  .00016035  00000+0  58342-2 0  9996",
        "tle_line2": "2 30600  98.3855 280.2310 0330604 282.0902  74.3412 14.07030871942629"
      },
      "geometry": {
        "type": "Point",
        "coordinates": [
          -81.75742667017022,
          44.53285828591495
        ]
      }
    },
    {
      "type": "Feature",
      "properties": {
        "norad_id": 30602,
        "name": "FENGYUN 1C DEB",
        "group": "fengyun-1c-debris",
        "lat": -76.18634379142632,
        "lon": -65.07289989466406,
        "alt_km": 609.5196654663077,
        "timestamp": "2025-12-07T11:27:50.279868+00:00",
        "meta_object_name": "FENGYUN 1C DEB",
        "meta_object_id": "1999-025AMH",
        "meta_epoch": "2025-12-06T10:18:18.266112",
        "meta_mean_motion": 14.8982991,
        "meta_eccentricity": 0.00083286,
        "meta_inclination": 99.0336,
        "meta_ra_of_asc_node": 253.4112,
        "meta_arg_of_pericenter": 140.4801,
        "meta_mean_anomaly": 280.4097,
        "meta_ephemeris_type": 0,
        "meta_classification_type": "U",
        "meta_norad_cat_id": 30602,
        "meta_element_set_no": 999,
        "meta_rev_at_epoch": 97711,
        "meta_bstar": 0.014195403,
        "meta_mean_motion_dot": 0.00139058,
        "meta_mean_motion_ddot": 0,
        "tle_line1": "1 30602U 99025AMH 25340.42937808  .00139058  00000+0  14195-1 0  9997",
        "tle_line2": "2 30602  99.0336 253.4112 0008328 140.4801 280.4097 14.89829910977116"
      },
      "geometry": {
        "type": "Point",
        "coordinates": [
          -65.07289989466406,
          -76.18634379142632
        ]
      }
    },
    {
      "type": "Feature",
      "properties": {
        "norad_id": 30603,
        "name": "FENGYUN 1C DEB",
        "group": "fengyun-1c-debris",
        "lat": 73.03077904674926,
        "lon": -24.057605612381906,
        "alt_km": 1050.7496671515037,
        "timestamp": "2025-12-07T11:27:50.279879+00:00",
        "meta_object_name": "FENGYUN 1C DEB",
        "meta_object_id": "1999-025AMJ",
        "meta_epoch": "2025-12-06T13:20:18.104640",
        "meta_mean_motion": 13.8409249,
        "meta_eccentricity": 0.01831251,
        "meta_inclination": 98.4095,
        "meta_ra_of_asc_node": 4.1146,
        "meta_arg_of_pericenter": 222.239,
        "meta_mean_anomaly": 303.1647,
        "meta_ephemeris_type": 0,
        "meta_classification_type": "U",
        "meta_norad_cat_id": 30603,
        "meta_element_set_no": 999,
        "meta_rev_at_epoch": 94790,
        "meta_bstar": 0.0021817347,
        "meta_mean_motion_dot": 2.728e-05,
        "meta_mean_motion_ddot": 0,
        "tle_line1": "1 30603U 99025AMJ 25340.55576510  .00002728  00000+0  21817-2 0  9994",
        "tle_line2": "2 30603  98.4095   4.1146 0183125 222.2390 303.1647 13.84092490947908"
      },
      "geometry": {
        "type": "Point",
        "coordinates": [
          -24.057605612381906,
          73.03077904674926
        ]
      }
    }
  ]
}